[Satellite]
VERSION=1.1
NAME=MMS 4
NICKNAME=MMS 4
TLE1=1 40485U 15011D   20152.69828704 -.00000135  00000-0  00000+0 0  9992
TLE2=2 40485  27.8268 120.2719 8648154  20.7883 159.8048  0.28631825 11149
STATUS=0
